NORAD_CAT_ID,OBJECT_NAME,OBJECT_TYPE,EPOCH,MEAN_MOTION,ECCENTRICITY,INCLINATION,RA_OF_ASC_NODE,ARG_OF_PERICENTER,MEAN_ANOMALY,BSTAR,MEAN_MOTION_DOT,MEAN_MOTION_DDOT,TLE_LINE0,TLE_LINE1,TLE_LINE2,SEMIMAJOR_AXIS,PERIOD,APOGEE,PERIGEE,DECAYED
55397.0,STARLINK-5224,PAYLOAD,2024-06-04 22:03:17,14.98336782,0.0003224,69.999,225.2592,271.1513,88.9277,3.7414e-05,3.53e-06,0.0,0 STARLINK-5224,1 55397U 23014G   24156.91895421  .00000353  00000-0  37414-4 0  9990,2 55397  69.9990 225.2592 0003224 271.1513  88.9277 14.98336782 76264,6950.172,96.107,574.278,569.796,0.0
55397.0,STARLINK-5224,PAYLOAD,2024-06-05 12:28:30,14.98324837,0.0002997,69.9995,223.7461,267.5275,92.5541,0.00013465,1.514e-05,0.0,0 STARLINK-5224,1 55397U 23014G   24157.51979964  .00001514  00000-0  13465-3 0  9991,2 55397  69.9995 223.7461 0002997 267.5275  92.5541 14.98324837 75416,6950.209,96.107,574.157,569.991,0.0
55397.0,STARLINK-5224,PAYLOAD,2024-06-05 22:05:18,14.98332575,0.0003114,69.9991,222.7346,270.3815,89.6987,1.0517e-05,3.2e-07,0.0,0 STARLINK-5224,1 55397U 23014G   24157.92035676  .00000032  00000-0  10517-4 0  9999,2 55397  69.9991 222.7346 0003114 270.3815  89.6987 14.98332575 76417,6950.185,96.107,574.214,569.886,0.0
55397.0,STARLINK-5224,PAYLOAD,2024-06-06 12:30:31,14.98333948,0.0003058,69.9992,221.2206,269.5277,90.5532,1.5908e-05,9.7e-07,0.0,0 STARLINK-5224,1 55397U 23014G   24158.52119548  .00000097  00000-0  15908-4 0  9997,2 55397  69.9992 221.2206 0003058 269.5277  90.5532 14.98333948 75563,6950.181,96.107,574.171,569.92,0.0
55397.0,STARLINK-5224,PAYLOAD,2024-06-07 09:20:16,14.98328416,0.00031,69.9992,219.0325,269.3744,90.706,7.6084e-05,8.15e-06,0.0,0 STARLINK-5224,1 55397U 23014G   24159.38907743  .00000815  00000-0  76084-4 0  9994,2 55397  69.9992 219.0325 0003100 269.3744  90.7060 14.98328416 76636,6950.198,96.107,574.217,569.908,0.0
55397.0,STARLINK-5224,PAYLOAD,2024-06-08 10:58:24,14.98359388,0.0002779,69.999,216.3389,273.1353,86.9488,-0.00031309,-3.829e-05,0.0,0 STARLINK-5224,1 55397U 23014G   24160.45722602 -.00003829  00000-0 -31309-3 0  9993,2 55397  69.9990 216.3389 0002779 273.1353  86.9488 14.98359388 75850,6950.102,96.105,573.898,570.036,0.0
55397.0,STARLINK-5224,PAYLOAD,2024-06-08 20:35:13,14.98338303,0.000312,69.999,215.3281,274.9657,85.1146,2.1021e-05,1.58e-06,0.0,0 STARLINK-5224,1 55397U 23014G   24160.85779007  .00000158  00000-0  21021-4 0  9999,2 55397  69.9990 215.3281 0003120 274.9657  85.1146 14.98338303 75910,6950.167,96.106,574.201,569.864,0.0
55397.0,STARLINK-5224,PAYLOAD,2024-06-09 04:35:54,14.98318304,0.0003202,69.9986,214.4871,272.307,87.7723,-7.5986e-05,-9.99e-06,0.0,0 STARLINK-5224,1 55397U 23014G   24161.19160554 -.00000999  00000-0 -75986-4 0  9992,2 55397  69.9986 214.4871 0003202 272.3070  87.7723 14.98318304 75965,6950.229,96.108,574.32,569.869,0.0
55397.0,STARLINK-5224,PAYLOAD,2024-06-09 11:00:26,14.98319953,0.0002526,70.0004,213.8186,261.8607,98.2265,6.5157e-06,-1.5e-07,0.0,0 STARLINK-5224,1 55397U 23014G   24161.45864406 -.00000015  00000-0  65157-5 0  9996,2 55397  70.0004 213.8186 0002526 261.8607  98.2265 14.98319953 76946,6950.224,96.108,573.845,570.333,0.0
55397.0,STARLINK-5224,PAYLOAD,2024-06-09 20:37:14,14.98348549,0.0003224,69.9991,212.803,276.6849,83.3943,-0.00038478,-4.683e-05,0.0,0 STARLINK-5224,1 55397U 23014G   24161.85919329 -.00004683  00000-0 -38478-3 0  9995,2 55397  69.9991 212.8030 0003224 276.6849  83.3943 14.98348549 76067,6950.136,96.106,574.241,569.76,0.0
55397.0,STARLINK-5224,PAYLOAD,2024-06-10 04:37:55,14.98331174,0.0003184,69.9983,211.9622,266.6983,93.3812,1.7995e-06,-7.2e-07,0.0,0 STARLINK-5224,1 55397U 23014G   24162.19299829 -.00000072  00000-0  17995-5 0  9999,2 55397  69.9983 211.9622 0003184 266.6983  93.3812 14.98331174 76116,6950.189,96.107,574.267,569.841,0.0
55397.0,STARLINK-5224,PAYLOAD,2024-06-10 12:38:34,14.9833669,0.0003123,69.9988,211.1214,269.7141,90.366,8.1804e-05,8.83e-06,0.0,0 STARLINK-5224,1 55397U 23014G   24162.52679319  .00000883  00000-0  81804-4 0  9990,2 55397  69.9988 211.1214 0003123 269.7141  90.3660 14.98336690 77109,6950.172,96.107,574.208,569.867,0.0
55397.0,STARLINK-5224,PAYLOAD,2024-06-10 20:39:15,14.98333639,0.0002861,69.9998,210.2789,273.7903,86.2928,8.7672e-05,9.53e-06,0.0,0 STARLINK-5224,1 55397U 23014G   24162.86059546  .00000953  00000-0  87672-4 0  9998,2 55397  69.9998 210.2789 0002861 273.7903  86.2928 14.98333639 77152,6950.182,96.107,574.035,570.058,0.0
55397.0,STARLINK-5224,PAYLOAD,2024-06-11 04:39:56,14.98324746,0.0003147,69.9985,209.438,270.922,89.1578,0.00020172,2.314e-05,0.0,0 STARLINK-5224,1 55397U 23014G   24163.19439860  .00002314  00000-0  20172-3 0  9990,2 55397  69.9985 209.4380 0003147 270.9220  89.1578 14.98324746 76267,6950.209,96.107,574.261,569.887,0.0
55397.0,STARLINK-5224,PAYLOAD,2024-06-11 12:40:36,14.98332164,0.00031,69.9987,208.5965,269.747,90.3333,0.00023059,2.66e-05,0.0,0 STARLINK-5224,1 55397U 23014G   24163.52819566  .00002660  00000-0  23059-3 0  9993,2 55397  69.9987 208.5965 0003100 269.7470  90.3333 14.98332164 77256,6950.186,96.107,574.206,569.897,0.0
55397.0,STARLINK-5224,PAYLOAD,2024-06-12 04:41:57,14.98328034,0.0003072,69.9987,206.9135,271.1411,88.9396,2.8475e-08,-9.3e-07,0.0,0 STARLINK-5224,1 55397U 23014G   24164.19580283 -.00000093  00000-0  28475-7 0  9998,2 55397  69.9987 206.9135 0003072 271.1411  88.9396 14.98328034 76417,6950.199,96.107,574.199,569.929,0.0
55397.0,STARLINK-5224,PAYLOAD,2024-06-12 06:18:05,14.98328432,0.0003037,69.9987,206.745,270.2698,89.8113,1.6688e-06,-7.3e-07,0.0,0 STARLINK-5224,1 55397U 23014G   24164.26256238 -.00000073  00000-0  16688-5 0  9995,2 55397  69.9987 206.7450 0003037 270.2698  89.8113 14.98328432 77367,6950.198,96.107,574.174,569.952,0.0
55397.0,STARLINK-5224,PAYLOAD,2024-06-12 12:42:37,14.98328586,0.0003038,69.9987,206.0713,269.6476,90.4335,-2.9125e-05,-4.41e-06,0.0,0 STARLINK-5224,1 55397U 23014G   24164.52960214 -.00000441  00000-0 -29125-4 0  9999,2 55397  69.9987 206.0713 0003038 269.6476  90.4335 14.98328586 77408,6950.197,96.107,574.174,569.951,0.0
55397.0,STARLINK-5224,PAYLOAD,2024-06-13 04:43:57,14.98333135,0.000306,69.9986,204.3879,270.3959,89.6849,8.3223e-05,9e-06,0.0,0 STARLINK-5224,1 55397U 23014G   24165.19719637  .00000900  00000-0  83223-4 0  9991,2 55397  69.9986 204.3879 0003060 270.3959  89.6849 14.98333135 76563,6950.183,96.107,574.175,569.921,0.0
55397.0,STARLINK-5224,PAYLOAD,2024-06-13 12:44:37,14.98334352,0.0003067,69.9987,203.5466,270.3933,89.6875,6.1763e-05,6.44e-06,0.0,0 STARLINK-5224,1 55397U 23014G   24165.53099521  .00000644  00000-0  61763-4 0  9992,2 55397  69.9987 203.5466 0003067 270.3933  89.6875 14.98334352 77557,6950.179,96.107,574.176,569.913,0.0
55397.0,STARLINK-5224,PAYLOAD,2024-06-14 12:46:38,14.98325086,0.0003104,69.9988,201.0196,283.7105,76.3708,4.6249e-05,4.59e-06,0.0,0 STARLINK-5224,1 55397U 23014G   24166.53239257  .00000459  00000-0  46249-4 0  9991,2 55397  69.9988 201.0196 0003104 283.7105  76.3708 14.98325086 77701,6950.208,96.107,574.23,569.916,0.0
55397.0,STARLINK-5224,PAYLOAD,2024-06-14 19:11:10,14.98337282,0.0003094,69.9988,200.3465,273.7045,86.376,-0.00020463,-2.534e-05,0.0,0 STARLINK-5224,1 55397U 23014G   24166.79942868 -.00002534  00000-0 -20463-3 0  9995,2 55397  69.9988 200.3465 0003094 273.7045  86.3760 14.98337282 77746,6950.17,96.107,574.186,569.885,0.0
55397.0,STARLINK-5224,PAYLOAD,2024-06-15 12:48:39,14.98330146,0.0003146,69.9984,198.4968,268.8462,91.2337,-5.7072e-05,-7.74e-06,0.0,0 STARLINK-5224,1 55397U 23014G   24167.53379006 -.00000774  00000-0 -57072-4 0  9997,2 55397  69.9984 198.4968 0003146 268.8462  91.2337 14.98330146 77852,6950.192,96.107,574.244,569.871,0.0
55397.0,STARLINK-5224,PAYLOAD,2024-06-15 19:13:11,14.98330142,0.0003203,69.9983,197.8235,269.0458,91.0334,-7.1736e-05,-9.49e-06,0.0,0 STARLINK-5224,1 55397U 23014G   24167.80083169 -.00000949  00000-0 -71736-4 0  9996,2 55397  69.9983 197.8235 0003203 269.0458  91.0334 14.98330142 77898,6950.192,96.107,574.284,569.831,0.0
55397.0,STARLINK-5224,PAYLOAD,2024-06-16 11:14:32,14.98323548,0.0003158,69.9983,196.1402,267.203,92.8767,4.2473e-05,4.14e-06,0.0,0 STARLINK-5224,1 55397U 23014G   24168.46843027  .00000414  00000-0  42473-4 0  9997,2 55397  69.9983 196.1402 0003158 267.2030  92.8767 14.98323548 77993,6950.213,96.107,574.273,569.883,0.0
55397.0,STARLINK-5224,PAYLOAD,2024-06-16 19:15:12,14.98322319,0.0003193,69.9982,195.2987,268.0655,92.0139,9.3452e-05,1.022e-05,0.0,0 STARLINK-5224,1 55397U 23014G   24168.80223165  .00001022  00000-0  93452-4 0  9999,2 55397  69.9982 195.2987 0003193 268.0655  92.0139 14.98322319 78048,6950.217,96.107,574.301,569.862,0.0
55397.0,STARLINK-5224,PAYLOAD,2024-06-17 19:17:13,14.98327507,0.0003221,69.9981,192.7736,267.9131,92.1659,9.7412e-05,1.069e-05,0.0,0 STARLINK-5224,1 55397U 23014G   24169.80363216  .00001069  00000-0  97412-4 0  9993,2 55397  69.9981 192.7736 0003221 267.9131  92.1659 14.98327507 78198,6950.201,96.107,574.304,569.827,0.0
55397.0,STARLINK-5224,PAYLOAD,2024-06-18 11:18:34,14.98331012,0.0003252,69.9979,191.0903,267.9359,92.1427,0.00012291,1.374e-05,0.0,0 STARLINK-5224,1 55397U 23014G   24170.47123015  .00001374  00000-0  12291-3 0  9999,2 55397  69.9979 191.0903 0003252 267.9359  92.1427 14.98331012 77355,6950.19,96.107,574.315,569.795,0.0
55397.0,STARLINK-5224,PAYLOAD,2024-06-18 19:19:17,14.9830348,0.0003141,69.998,190.2487,271.2698,88.8101,-0.00019373,-2.402e-05,0.0,0 STARLINK-5224,1 55397U 23014G   24170.80505892 -.00002402  00000-0 -19373-3 0  9996,2 55397  69.9980 190.2487 0003141 271.2698  88.8101 14.98303480 77401,6950.275,96.109,574.323,569.957,0.0
55397.0,STARLINK-5224,PAYLOAD,2024-06-19 03:19:56,14.98322797,0.000315,69.998,189.407,266.524,93.5559,3.636e-05,3.41e-06,0.0,0 STARLINK-5224,1 55397U 23014G   24171.13884689  .00000341  00000-0  36360-4 0  9991,2 55397  69.9980 189.4070 0003150 266.5240  93.5559 14.98322797 77456,6950.215,96.107,574.269,569.891,0.0
